IRIDIUM 26              
1 24903U 97043A   25346.21171249  .00000585  00000+0  18951-3 0  9992
2 24903  86.3961  35.7851 0002067  98.8104 261.3328 14.37326940482319
IRIDIUM 22              
1 24907U 97043E   25346.21993225  .00000511  00000+0  16878-3 0  9997
2 24907  86.3965  39.4742 0002259  96.2545 263.8909 14.36121278482320
DUMMY MASS 1            
1 24925U 97048A   25346.26741340  .00000672  00000+0  71623-4 0  9994
2 24925  86.3346  52.9252 0004877 218.5892 141.4985 14.87182588531597
DUMMY MASS 2            
1 24926U 97048B   25346.25930736  .00000674  00000+0  72261-4 0  9994
2 24926  86.3346  54.5698 0005276 236.6491 123.4229 14.86933101531360
IRIDIUM 29              
1 24944U 97051A   25346.24789956  .00000681  00000+0  22493-3 0  9992
2 24944  86.3953  69.1501 0002290  92.7776 267.3683 14.36662452478836
IRIDIUM 33              
1 24946U 97051C   25346.28813002  .00000571  00000+0  19353-3 0  9997
2 24946  86.3869  68.4112 0006971 201.9073 158.1826 14.35037182478288
IRIDIUM 28              
1 24948U 97051E   25346.24842351  .00000650  00000+0  21040-3 0  9998
2 24948  86.3959  66.5636 0001907 109.1075 251.0330 14.37562373479422
IRIDIUM 36              
1 24967U 97056C   25346.25359500  .00000734  00000+0  23750-3 0  9997
2 24967  86.3958  98.1889 0002104 101.9804 258.1630 14.37783470477807
